NORAD_CAT_ID,OBJECT_NAME,OBJECT_TYPE,EPOCH,MEAN_MOTION,ECCENTRICITY,INCLINATION,RA_OF_ASC_NODE,ARG_OF_PERICENTER,MEAN_ANOMALY,BSTAR,MEAN_MOTION_DOT,MEAN_MOTION_DDOT,TLE_LINE0,TLE_LINE1,TLE_LINE2,SEMIMAJOR_AXIS,PERIOD,APOGEE,PERIGEE,DECAYED
53430.0,STARLINK-4538,PAYLOAD,2024-03-22 09:04:55,15.08850003,0.0001338,53.2165,84.2893,111.6044,248.509,0.00021918,3.203e-05,0.0,0 STARLINK-4538,1 53430U 22097AU  24082.37841605  .00003203  00000-0  21918-3 0  9997,2 53430  53.2165  84.2893 0001338 111.6044 248.5090 15.08850003 90013,6917.85,95.437,540.64,538.789,0.0
53430.0,STARLINK-4538,PAYLOAD,2024-03-23 05:44:56,15.08828517,0.0001423,53.218,80.4238,110.1719,249.9427,0.00031723,4.763e-05,0.0,0 STARLINK-4538,1 53430U 22097AU  24083.23954837  .00004763  00000-0  31723-3 0  9992,2 53430  53.2180  80.4238 0001423 110.1719 249.9427 15.08828517 90147,6917.915,95.438,540.765,538.796,0.0
53430.0,STARLINK-4538,PAYLOAD,2024-03-23 08:55:43,15.08828568,0.0001146,53.2165,79.8262,111.9516,248.1598,0.00030218,4.523e-05,0.0,0 STARLINK-4538,1 53430U 22097AU  24083.37202813  .00004523  00000-0  30218-3 0  9999,2 53430  53.2165  79.8262 0001146 111.9516 248.1598 15.08828568 90624,6917.915,95.438,540.573,538.988,0.0
53430.0,STARLINK-4538,PAYLOAD,2024-03-24 07:11:05,15.08863747,0.0001202,53.2172,75.6679,87.8737,272.2393,7.8398e-05,9.61e-06,0.0,0 STARLINK-4538,1 53430U 22097AU  24084.29937154  .00000961  00000-0  78398-4 0  9998,2 53430  53.2172  75.6679 0001202  87.8737 272.2393 15.08863747 90301,6917.808,95.436,540.504,538.841,0.0
53430.0,STARLINK-4538,PAYLOAD,2024-03-24 23:04:59,15.08827928,0.0001652,53.2172,72.6931,97.3747,262.7433,-0.0001115,-2.062e-05,0.0,0 STARLINK-4538,1 53430U 22097AU  24084.96179648 -.00002062  00000-0 -11150-3 0  9996,2 53430  53.2172  72.6931 0001652  97.3747 262.7433 15.08827928 90866,6917.917,95.438,540.925,538.639,0.0
53430.0,STARLINK-4538,PAYLOAD,2024-03-25 05:26:31,15.08833662,0.0001443,53.2174,71.5037,97.0337,263.0819,-3.8227e-05,-8.96e-06,0.0,0 STARLINK-4538,1 53430U 22097AU  24085.22675093 -.00000896  00000-0 -38227-4 0  9999,2 53430  53.2174  71.5037 0001443  97.0337 263.0819 15.08833662 90441,6917.9,95.438,540.763,538.767,0.0
53430.0,STARLINK-4538,PAYLOAD,2024-03-25 16:34:12,15.08838073,0.0001531,53.2165,69.4208,98.5449,261.5716,-4.5365e-07,-2.95e-06,0.0,0 STARLINK-4538,1 53430U 22097AU  24085.69042635 -.00000295  00000-0 -45365-6 0  9996,2 53430  53.2165  69.4208 0001531  98.5449 261.5716 15.08838073 90513,6917.886,95.438,540.81,538.692,0.0
53430.0,STARLINK-4538,PAYLOAD,2024-03-26 05:17:18,15.08826366,0.0001668,53.2168,67.0415,96.1944,263.9238,-0.00020629,-3.568e-05,0.0,0 STARLINK-4538,1 53430U 22097AU  24086.22035621 -.00003568  00000-0 -20629-3 0  9992,2 53430  53.2168  67.0415 0001668  96.1944 263.9238 15.08826366 90590,6917.922,95.438,540.941,538.633,0.0
53430.0,STARLINK-4538,PAYLOAD,2024-03-26 08:28:05,15.08827537,0.0001704,53.2173,66.4467,96.6104,263.5082,-0.00015504,-2.754e-05,0.0,0 STARLINK-4538,1 53430U 22097AU  24086.35283717 -.00002754  00000-0 -15504-3 0  9999,2 53430  53.2173  66.4467 0001704  96.6104 263.5082 15.08827537 91078,6917.918,95.438,540.962,538.605,0.0
53430.0,STARLINK-4538,PAYLOAD,2024-03-27 05:08:05,15.08842808,0.0001701,53.2177,62.5814,96.6522,263.4664,0.0002613,3.873e-05,0.0,0 STARLINK-4538,1 53430U 22097AU  24087.21394725  .00003873  00000-0  26130-3 0  9995,2 53430  53.2177  62.5814 0001701  96.6522 263.4664 15.08842808 90742,6917.872,95.437,540.914,538.56,0.0
53430.0,STARLINK-4538,PAYLOAD,2024-03-27 08:18:51,15.08849084,0.000178,53.2171,61.986,95.4278,264.6917,0.00040306,6.134e-05,0.0,0 STARLINK-4538,1 53430U 22097AU  24087.34642989  .00006134  00000-0  40306-3 0  9991,2 53430  53.2171  61.9860 0001780  95.4278 264.6917 15.08849084 91223,6917.853,95.437,540.949,538.486,0.0
53430.0,STARLINK-4538,PAYLOAD,2024-03-28 04:58:52,15.08840568,0.0001421,53.2177,58.1233,90.633,269.4825,0.00020271,2.94e-05,0.0,0 STARLINK-4538,1 53430U 22097AU  24088.20755255  .00002940  00000-0  20271-3 0  9998,2 53430  53.2177  58.1233 0001421  90.6330 269.4825 15.08840568 90890,6917.879,95.438,540.727,538.761,0.0
53430.0,STARLINK-4538,PAYLOAD,2024-03-28 14:31:10,15.08850696,0.0001491,53.2186,56.3399,94.8782,265.2381,0.00024076,3.547e-05,0.0,0 STARLINK-4538,1 53430U 22097AU  24088.60498412  .00003547  00000-0  24076-3 0  9992,2 53430  53.2186  56.3399 0001491  94.8782 265.2381 15.08850696 91410,6917.848,95.437,540.744,538.681,0.0
53430.0,STARLINK-4538,PAYLOAD,2024-03-29 03:14:16,15.0883883,0.000157,53.2174,53.9572,79.6886,280.4283,-0.00020882,-3.61e-05,0.0,0 STARLINK-4538,1 53430U 22097AU  24089.13490899 -.00003610  00000-0 -20882-3 0  9996,2 53430  53.2174  53.9572 0001570  79.6886 280.4283 15.08838830 91031,6917.884,95.438,540.835,538.663,0.0
53430.0,STARLINK-4538,PAYLOAD,2024-03-29 14:21:57,15.08855418,0.0001655,53.2196,51.8786,93.391,266.7271,2.6297e-05,1.31e-06,0.0,0 STARLINK-4538,1 53430U 22097AU  24089.59858130  .00000131  00000-0  26297-4 0  9992,2 53430  53.2196  51.8786 0001655  93.3910 266.7271 15.08855418 91567,6917.833,95.437,540.843,538.553,0.0
53430.0,STARLINK-4538,PAYLOAD,2024-03-30 06:15:48,15.08848048,0.0001329,53.2181,48.9045,106.7605,253.3534,0.00011156,1.488e-05,0.0,0 STARLINK-4538,1 53430U 22097AU  24090.26098201  .00001488  00000-0  11156-3 0  9996,2 53430  53.2181  48.9045 0001329 106.7605 253.3534 15.08848048 91200,6917.856,95.437,540.64,538.801,0.0
53430.0,STARLINK-4538,PAYLOAD,2024-03-31 04:31:13,15.08836863,0.0001474,53.2192,44.7442,93.9039,266.2121,2.7271e-05,1.46e-06,0.0,0 STARLINK-4538,1 53430U 22097AU  24091.18835382  .00000146  00000-0  27271-4 0  9993,2 53430  53.2192  44.7442 0001474  93.9039 266.2121 15.08836863 91348,6917.89,95.438,540.775,538.735,0.0
53430.0,STARLINK-4538,PAYLOAD,2024-03-31 06:06:36,15.08845533,0.0001294,53.2187,44.4449,106.7905,253.3229,9.411e-05,1.21e-05,0.0,0 STARLINK-4538,1 53430U 22097AU  24091.25458568  .00001210  00000-0  94110-4 0  9997,2 53430  53.2187  44.4449 0001294 106.7905 253.3229 15.08845533 91352,6917.863,95.437,540.624,538.833,0.0
53430.0,STARLINK-4538,PAYLOAD,2024-03-31 14:03:31,15.08849377,0.0001491,53.2195,42.9556,88.8109,271.3054,0.00012686,1.732e-05,0.0,0 STARLINK-4538,1 53430U 22097AU  24091.58578277  .00001732  00000-0  12686-3 0  9999,2 53430  53.2195  42.9556 0001491  88.8109 271.3054 15.08849377 91860,6917.852,95.437,540.748,538.685,0.0
53430.0,STARLINK-4538,PAYLOAD,2024-04-01 02:46:37,15.08827834,0.0001325,53.2193,40.5801,85.3585,274.7558,-5.3332e-05,-1.136e-05,0.0,0 STARLINK-4538,1 53430U 22097AU  24092.11571627 -.00001136  00000-0 -53332-4 0  9995,2 53430  53.2193  40.5801 0001325  85.3585 274.7558 15.08827834 91489,6917.918,95.438,540.699,538.866,0.0
53430.0,STARLINK-4538,PAYLOAD,2024-04-01 05:57:23,15.08838976,0.0001188,53.2182,39.9816,96.3787,263.734,1.2368e-05,-9.1e-07,0.0,0 STARLINK-4538,1 53430U 22097AU  24092.24818992 -.00000091  00000-0  12368-4 0  9990,2 53430  53.2182  39.9816 0001188  96.3787 263.7340 15.08838976 91507,6917.884,95.438,540.57,538.927,0.0
53430.0,STARLINK-4538,PAYLOAD,2024-04-01 13:54:18,15.08847718,0.0001464,53.2189,38.4978,89.7593,270.3566,0.00012416,1.689e-05,0.0,0 STARLINK-4538,1 53430U 22097AU  24092.57938612  .00001689  00000-0  12416-3 0  9994,2 53430  53.2189  38.4978 0001464  89.7593 270.3566 15.08847718 92010,6917.857,95.437,540.735,538.709,0.0
53430.0,STARLINK-4538,PAYLOAD,2024-04-02 05:48:10,15.08849082,0.0001554,53.22,35.5234,96.3722,263.7448,0.00028613,4.27e-05,0.0,0 STARLINK-4538,1 53430U 22097AU  24093.24178747  .00004270  00000-0  28613-3 0  9999,2 53430  53.2200  35.5234 0001554  96.3722 263.7448 15.08849082 91655,6917.853,95.437,540.793,538.643,0.0
53430.0,STARLINK-4538,PAYLOAD,2024-04-02 13:45:05,15.0884917,0.0001447,53.2184,34.036,101.1657,258.9498,0.00018321,2.63e-05,0.0,0 STARLINK-4538,1 53430U 22097AU  24093.57298592  .00002630  00000-0  18321-3 0  9999,2 53430  53.2184  34.0360 0001447 101.1657 258.9498 15.08849170 92169,6917.852,95.437,540.718,538.716,0.0
53430.0,STARLINK-4538,PAYLOAD,2024-04-03 02:28:11,15.08833642,0.0001502,53.2195,31.658,93.0805,267.0359,5.128e-06,-2.06e-06,0.0,0 STARLINK-4538,1 53430U 22097AU  24094.10291536 -.00000206  00000-0  51280-5 0  9991,2 53430  53.2195  31.6580 0001502  93.0805 267.0359 15.08833642 91785,6917.9,95.438,540.804,538.726,0.0
53430.0,STARLINK-4538,PAYLOAD,2024-04-03 05:38:58,15.08835563,0.0001537,53.2196,31.0634,92.3223,267.7945,3.0527e-05,1.98e-06,0.0,0 STARLINK-4538,1 53430U 22097AU  24094.23539498  .00000198  00000-0  30527-4 0  9996,2 53430  53.2196  31.0634 0001537  92.3223 267.7945 15.08835563 92260,6917.894,95.438,540.822,538.696,0.0
53430.0,STARLINK-4538,PAYLOAD,2024-04-04 02:18:58,15.08844981,0.0001432,53.2186,27.1975,93.8503,266.2653,0.00015455,2.173e-05,0.0,0 STARLINK-4538,1 53430U 22097AU  24095.09651067  .00002173  00000-0  15455-3 0  9995,2 53430  53.2186  27.1975 0001432  93.8503 266.2653 15.08844981 91931,6917.865,95.437,540.721,538.74,0.0
53430.0,STARLINK-4538,PAYLOAD,2024-04-04 11:51:17,15.08850494,0.0001357,53.2188,25.4142,91.245,268.8698,0.0002705,4.021e-05,0.0,0 STARLINK-4538,1 53430U 22097AU  24095.49394804  .00004021  00000-0  27050-3 0  9990,2 53430  53.2188  25.4142 0001357  91.2450 268.8698 15.08850494 92450,6917.848,95.437,540.652,538.775,0.0
53430.0,STARLINK-4538,PAYLOAD,2024-04-05 05:20:31,15.08841709,0.0001356,53.2183,22.1442,88.5411,271.5736,0.00015393,2.163e-05,0.0,0 STARLINK-4538,1 53430U 22097AU  24096.22259227  .00002163  00000-0  15393-3 0  9993,2 53430  53.2183  22.1442 0001356  88.5411 271.5736 15.08841709 92102,6917.875,95.437,540.678,538.802,0.0
53430.0,STARLINK-4538,PAYLOAD,2024-04-05 11:42:03,15.08853317,0.000143,53.2192,20.9555,93.5592,266.5564,0.00028339,4.227e-05,0.0,0 STARLINK-4538,1 53430U 22097AU  24096.48754569  .00004227  00000-0  28339-3 0  9997,2 53430  53.2192  20.9555 0001430  93.5592 266.5564 15.08853317 92147,6917.84,95.437,540.694,538.715,0.0
